[{"OBJECT_NAME":"SHIYAN-1 (SY-1)","OBJECT_ID":"2004-012A","EPOCH":"2026-03-09T17:40:34.066560","MEAN_MOTION":15.31043463,"ECCENTRICITY":0.00058726,"INCLINATION":97.8764,"RA_OF_ASC_NODE":140.5238,"ARG_OF_PERICENTER":23.6952,"MEAN_ANOMALY":336.4557,"EPHEMERIS_TYPE":0,"CLASSIFICATION_TYPE":"U","NORAD_CAT_ID":28220,"ELEMENT_SET_NO":999,"REV_AT_EPOCH":19586,"BSTAR":0.00054854449,"MEAN_MOTION_DOT":0.00016393,"MEAN_MOTION_DDOT":0},{"OBJECT_NAME":"STARLINK-31476","OBJECT_ID":"2024-073N","EPOCH":"2026-03-09T00:49:04.018656","MEAN_MOTION":15.27579294,"ECCENTRICITY":0.0001693,"INCLINATION":43.0016,"RA_OF_ASC_NODE":321.8672,"ARG_OF_PERICENTER":264.7192,"MEAN_ANOMALY":95.3466,"EPHEMERIS_TYPE":0,"CLASSIFICATION_TYPE":"U","NORAD_CAT_ID":59523,"ELEMENT_SET_NO":999,"REV_AT_EPOCH":10607,"BSTAR":-6.9917098e-5,"MEAN_MOTION_DOT":-2.186e-5,"MEAN_MOTION_DDOT":0}]
